[
    {
        "Altitude(m)": 604221.1920134969,
        "Argument of Periapsis(deg)": 0.0,
        "Eccentricity": 0.0,
        "Inclination(deg)": 60.0,
        "Latitude(deg)": 14.117175633012671,
        "Longitude(deg)": -91.66584737918669,
        "Mean Anomaly(deg)": 16.3636,
        "RAAN(deg)": 0.0,
        "Satellite Name": "Test1 1",
        "Satellite Number": 1,
        "Semi-Major Axis(m)": 6980739.136638005,
        "Time(s)": 0
    },
    {
        "Altitude(m)": 604235.3325050265,
        "Argument of Periapsis(deg)": 0.00010418945913296404,
        "Eccentricity": 0.0,
        "Inclination(deg)": 60.0,
        "Latitude(deg)": 14.651572425470382,
        "Longitude(deg)": -91.37740057294266,
        "Mean Anomaly(deg)": 16.98370614546183,
        "RAAN(deg)": -0.0004200491397426661,
        "Satellite Name": "Test1 1",
        "Satellite Number": 1,
        "Semi-Major Axis(m)": 6980739.136638005,
        "Time(s)": 10
    }
]